STARLINK-3085_new
1 19156C 21082AC  21326.12309352  .00013902  00000-0  11652-3 0  3264
2 19156  69.9979 292.8828 0003585 288.2800  29.5743 15.69719068    17
STARLINK-3085_old
1 29156C 21082AC  21325.18733620 -.00052124  00000-0 -43703-3 0  3250
2 29156  69.9979 295.5132 0003672 287.7952 143.6677 15.69778092    10
